[Satellite]
VERSION=1.1
NAME=CZ-6A DEB
NICKNAME=CZ-6A DEB
TLE1=1 54592U 22151MS  22341.47654596  .00005120  00000+0  18920-2 0  9993
TLE2=2 54592  98.6060 345.5024 0104445 239.7123 119.3693 14.29838317  3083
STATUS=0
